NORAD_CAT_ID,OBJECT_NAME,OBJECT_TYPE,EPOCH,MEAN_MOTION,ECCENTRICITY,INCLINATION,RA_OF_ASC_NODE,ARG_OF_PERICENTER,MEAN_ANOMALY,BSTAR,MEAN_MOTION_DOT,MEAN_MOTION_DDOT,TLE_LINE0,TLE_LINE1,TLE_LINE2,SEMIMAJOR_AXIS,PERIOD,APOGEE,PERIGEE,DECAYED
55428.0,STARLINK-5064,PAYLOAD,2023-02-27 04:34:14,15.69922121,0.0003033,69.9999,15.1965,259.7272,100.3582,2.6563e-05,2.982e-05,0.0,0 STARLINK-5064,1 55428U 23014AP  23058.19044892  .00002982  00000-0  26563-4 0  9996,2 55428  69.9999  15.1965 0003033 259.7272 100.3582 15.69922121  4367,6737.257,91.724,361.165,357.078,0.0
55428.0,STARLINK-5064,PAYLOAD,2023-02-27 06:05:59,15.69934524,0.0003445,69.9992,15.0171,267.7709,92.3093,0.00010984,0.00013021,0.0,0 STARLINK-5064,1 55428U 23014AP  23058.25416505  .00013021  00000-0  10984-3 0  9992,2 55428  69.9992  15.0171 0003445 267.7709  92.3093 15.69934524  4377,6737.221,91.724,361.407,356.765,0.0
55428.0,STARLINK-5064,PAYLOAD,2023-02-28 03:30:31,15.69912025,0.0004987,70.0006,12.5089,269.9603,90.1021,8.9015e-05,0.00010502,0.0,0 STARLINK-5064,1 55428U 23014AP  23059.14620131  .00010502  00000-0  89015-4 0  9996,2 55428  70.0006  12.5089 0004987 269.9603  90.1021 15.69912025  4510,6737.286,91.725,362.511,355.791,0.0
55428.0,STARLINK-5064,PAYLOAD,2023-02-28 08:05:47,15.69925447,0.0003643,70.0009,11.9732,267.2312,92.8467,6.1564e-05,7.197e-05,0.0,0 STARLINK-5064,1 55428U 23014AP  23059.33735644  .00007197  00000-0  61564-4 0  9998,2 55428  70.0009  11.9732 0003643 267.2312  92.8467 15.69925447  5489,6737.247,91.724,361.567,356.658,0.0
55428.0,STARLINK-5064,PAYLOAD,2023-02-28 21:51:34,15.69899617,0.0002626,70.0001,10.36,259.447,100.643,9.6507e-06,9.47e-06,0.0,0 STARLINK-5064,1 55428U 23014AP  23059.91081886  .00000947  00000-0  96507-5 0  9996,2 55428  70.0001  10.3600 0002626 259.4470 100.6430 15.69899617  5573,6737.321,91.726,360.955,357.417,0.0
55428.0,STARLINK-5064,PAYLOAD,2023-02-28 23:23:20,15.69893082,0.0002692,70.001,10.1823,256.2051,103.8845,-3.4669e-07,-2.54e-06,0.0,0 STARLINK-5064,1 55428U 23014AP  23059.97453741 -.00000254  00000-0 -34669-6 0  9990,2 55428  70.0010  10.1823 0002692 256.2051 103.8845 15.69893082  4643,6737.34,91.726,361.019,357.391,0.0
55428.0,STARLINK-5064,PAYLOAD,2023-03-01 07:02:05,15.69924966,0.0003057,70.0003,9.2858,229.0917,131.0014,7.2853e-05,8.556e-05,0.0,0 STARLINK-5064,1 55428U 23014AP  23060.29311599  .00008556  00000-0  72853-4 0  9997,2 55428  70.0003   9.2858 0003057 229.0917 131.0014 15.69924966  4699,6737.249,91.724,361.173,357.054,0.0
55428.0,STARLINK-5064,PAYLOAD,2023-03-02 05:58:21,15.69931737,0.0003187,69.9998,6.5969,258.5753,101.5085,5.5613e-05,6.481e-05,0.0,0 STARLINK-5064,1 55428U 23014AP  23061.24886179  .00006481  00000-0  55613-4 0  9994,2 55428  69.9998   6.5969 0003187 258.5753 101.5085 15.69931737  4842,6737.229,91.724,361.241,356.947,0.0
55428.0,STARLINK-5064,PAYLOAD,2023-03-03 06:26:22,15.69937917,0.0003192,70.0004,3.732,253.395,106.6895,2.5925e-05,2.907e-05,0.0,0 STARLINK-5064,1 55428U 23014AP  23062.26832058  .00002907  00000-0  25925-4 0  9996,2 55428  70.0004   3.7320 0003192 253.3950 106.6895 15.69937917  5001,6737.212,91.723,361.227,356.926,0.0
55428.0,STARLINK-5064,PAYLOAD,2023-03-03 21:43:54,15.69917383,0.000323,70.0024,1.943,247.797,112.2884,2.2265e-06,5.5e-07,0.0,0 STARLINK-5064,1 55428U 23014AP  23062.90549614  .00000055  00000-0  22265-5 0  9997,2 55428  70.0024   1.9430 0003230 247.7970 112.2884 15.69917383  6048,6737.27,91.725,361.312,356.959,0.0
55428.0,STARLINK-5064,PAYLOAD,2023-03-04 02:19:10,15.69920885,0.0003646,69.9992,1.4016,266.555,93.5228,5.4898e-06,4.47e-06,0.0,0 STARLINK-5064,1 55428U 23014AP  23063.09664671  .00000447  00000-0  54898-5 0  9991,2 55428  69.9992   1.4016 0003646 266.5550  93.5228 15.69920885  5131,6737.26,91.724,361.582,356.669,0.0
55428.0,STARLINK-5064,PAYLOAD,2023-03-04 08:26:10,15.69941173,0.0003593,69.9993,0.6852,267.1048,92.9736,5.5789e-05,6.505e-05,0.0,0 STARLINK-5064,1 55428U 23014AP  23063.35150510  .00006505  00000-0  55789-4 0  9992,2 55428  69.9993   0.6852 0003593 267.1048  92.9736 15.69941173  5175,6737.202,91.723,361.488,356.647,0.0
55428.0,STARLINK-5064,PAYLOAD,2023-03-04 19:08:26,15.69921502,0.0003663,70.0,359.4319,268.8075,91.2701,-2.0497e-05,-2.677e-05,0.0,0 STARLINK-5064,1 55428U 23014AP  23063.79753015 -.00002677  00000-0 -20497-4 0  9995,2 55428  70.0000 359.4319 0003663 268.8075  91.2701 15.69921502  5242,6737.259,91.724,361.591,356.656,0.0
55428.0,STARLINK-5064,PAYLOAD,2023-03-05 05:50:42,15.6993941,0.0003641,70.001,358.1785,262.8715,97.2067,5.2374e-05,6.094e-05,0.0,0 STARLINK-5064,1 55428U 23014AP  23064.24354195  .00006094  00000-0  52374-4 0  9996,2 55428  70.0010 358.1785 0003641 262.8715  97.2067 15.69939410  5313,6737.207,91.723,361.525,356.619,0.0
55428.0,STARLINK-5064,PAYLOAD,2023-03-05 22:39:58,15.69932835,0.0003167,70.0014,356.2084,248.7033,111.3825,4.3743e-05,5.052e-05,0.0,0 STARLINK-5064,1 55428U 23014AP  23064.94442865  .00005052  00000-0  43743-4 0  9998,2 55428  70.0014 356.2084 0003167 248.7033 111.3825 15.69932835  6367,6737.226,91.724,361.225,356.957,0.0
55428.0,STARLINK-5064,PAYLOAD,2023-03-06 07:50:29,15.69919554,0.0003003,69.9997,355.1313,272.9231,87.1621,-7.5609e-06,-1.121e-05,0.0,0 STARLINK-5064,1 55428U 23014AP  23065.32673367 -.00001121  00000-0 -75609-5 0  9996,2 55428  69.9997 355.1313 0003003 272.9231  87.1621 15.69919554  5484,6737.264,91.724,361.152,357.106,0.0
55428.0,STARLINK-5064,PAYLOAD,2023-03-06 21:36:16,15.69920785,0.0002898,69.9964,353.5151,245.4445,114.6449,6.2765e-06,5.42e-06,0.0,0 STARLINK-5064,1 55428U 23014AP  23065.90018531  .00000542  00000-0  62765-5 0  9999,2 55428  69.9964 353.5151 0002898 245.4445 114.6449 15.69920785  6510,6737.261,91.724,361.078,357.173,0.0
55428.0,STARLINK-5064,PAYLOAD,2023-03-07 05:15:00,15.69945444,0.000365,69.9999,352.6233,265.6129,94.465,6.4203e-05,7.521e-05,0.0,0 STARLINK-5064,1 55428U 23014AP  23066.21875889  .00007521  00000-0  64203-4 0  9993,2 55428  69.9999 352.6233 0003650 265.6129  94.4650 15.69945444  5628,6737.19,91.723,361.514,356.596,0.0
55428.0,STARLINK-5064,PAYLOAD,2023-03-07 19:00:47,15.69917687,0.0003828,70.0,351.0098,258.3606,101.716,-1.3158e-05,-1.795e-05,0.0,0 STARLINK-5064,1 55428U 23014AP  23066.79221831 -.00001795  00000-0 -13158-4 0  9990,2 55428  70.0000 351.0098 0003828 258.3606 101.7160 15.69917687  5718,6737.269,91.725,361.714,356.555,0.0
55428.0,STARLINK-5064,PAYLOAD,2023-03-08 02:39:32,15.69929163,0.0003401,69.9995,350.1146,261.9519,98.129,2.4912e-05,2.784e-05,0.0,0 STARLINK-5064,1 55428U 23014AP  23067.11079852  .00002784  00000-0  24912-4 0  9998,2 55428  69.9995 350.1146 0003401 261.9519  98.1290 15.69929163  5762,6737.237,91.724,361.393,356.81,0.0
55428.0,STARLINK-5064,PAYLOAD,2023-03-08 17:57:04,15.69922696,0.0003241,69.9996,348.3227,261.5958,98.4871,2.0936e-05,2.305e-05,0.0,0 STARLINK-5064,1 55428U 23014AP  23067.74796950  .00002305  00000-0  20936-4 0  9993,2 55428  69.9996 348.3227 0003241 261.5958  98.4871 15.69922696  5860,6737.255,91.724,361.304,356.937,0.0
55428.0,STARLINK-5064,PAYLOAD,2023-03-09 04:39:20,15.69907201,0.0003647,70.0021,347.0709,240.0238,120.0596,-4.127e-05,-5.169e-05,0.0,0 STARLINK-5064,1 55428U 23014AP  23068.19398814 -.00005169  00000-0 -41270-4 0  9997,2 55428  70.0021 347.0709 0003647 240.0238 120.0596 15.69907201  5935,6737.299,91.725,361.622,356.707,0.0
55428.0,STARLINK-5064,PAYLOAD,2023-03-09 21:28:36,15.69926738,0.0003757,69.998,345.0984,263.4733,96.6035,2.6623e-05,2.99e-05,0.0,0 STARLINK-5064,1 55428U 23014AP  23068.89486798  .00002990  00000-0  26623-4 0  9995,2 55428  69.9980 345.0984 0003757 263.4733  96.6035 15.69926738  6988,6737.244,91.724,361.64,356.577,0.0
55428.0,STARLINK-5064,PAYLOAD,2023-03-10 03:35:37,15.69907658,0.0002732,69.9997,344.3838,259.0189,101.07,-3.1011e-05,-3.936e-05,0.0,0 STARLINK-5064,1 55428U 23014AP  23069.14974226 -.00003936  00000-0 -31011-4 0  9992,2 55428  69.9997 344.3838 0002732 259.0189 101.0700 15.69907658  6085,6737.298,91.725,361.004,357.323,0.0
55428.0,STARLINK-5064,PAYLOAD,2023-03-10 17:21:23,15.69919387,0.0003709,69.9973,342.7686,265.2652,94.812,-8.9205e-06,-1.285e-05,0.0,0 STARLINK-5064,1 55428U 23014AP  23069.72318648 -.00001285  00000-0 -89205-5 0  9990,2 55428  69.9973 342.7686 0003709 265.2652  94.8120 15.69919387  6178,6737.265,91.724,361.628,356.631,0.0
55428.0,STARLINK-5064,PAYLOAD,2023-03-10 20:24:53,15.69935863,0.0003076,70.0006,342.4129,258.5558,101.5293,4.4022e-05,5.086e-05,0.0,0 STARLINK-5064,1 55428U 23014AP  23069.85061637  .00005086  00000-0  44022-4 0  9995,2 55428  70.0006 342.4129 0003076 258.5558 101.5293 15.69935863  7135,6737.217,91.723,361.155,357.01,0.0
55428.0,STARLINK-5064,PAYLOAD,2023-03-11 01:00:08,15.69940758,0.0003075,69.9995,341.8758,263.1444,96.9402,5.8667e-05,6.852e-05,0.0,0 STARLINK-5064,1 55428U 23014AP  23070.04176455  .00006852  00000-0  58667-4 0  9995,2 55428  69.9995 341.8758 0003075 263.1444  96.9402 15.69940758  6222,6737.203,91.723,361.14,356.997,0.0
55428.0,STARLINK-5064,PAYLOAD,2023-03-11 02:31:53,15.69942173,0.0003012,69.9998,341.6967,261.9309,98.1545,6.2878e-05,7.36e-05,0.0,0 STARLINK-5064,1 55428U 23014AP  23070.10548065  .00007360  00000-0  62878-4 0  9996,2 55428  69.9998 341.6967 0003012 261.9309  98.1545 15.69942173  7172,6737.199,91.723,361.094,357.035,0.0
55428.0,STARLINK-5064,PAYLOAD,2023-03-11 19:21:10,15.69935842,0.0003394,69.9973,339.7238,258.6409,101.4405,4.7142e-05,5.462e-05,0.0,0 STARLINK-5064,1 55428U 23014AP  23070.80636637  .00005462  00000-0  47142-4 0  9994,2 55428  69.9973 339.7238 0003394 258.6409 101.4405 15.69935842  6347,6737.218,91.723,361.369,356.796,0.0
55428.0,STARLINK-5064,PAYLOAD,2023-03-11 20:52:55,15.69918175,0.0003837,69.9975,339.5451,270.5756,89.5,-4.9589e-06,-8.09e-06,0.0,0 STARLINK-5064,1 55428U 23014AP  23070.87008777 -.00000809  00000-0 -49589-5 0  9999,2 55428  69.9975 339.5451 0003837 270.5756  89.5000 15.69918175  6352,6737.268,91.725,361.718,356.548,0.0
